NORAD_CAT_ID,OBJECT_NAME,OBJECT_TYPE,EPOCH,MEAN_MOTION,ECCENTRICITY,INCLINATION,RA_OF_ASC_NODE,ARG_OF_PERICENTER,MEAN_ANOMALY,BSTAR,MEAN_MOTION_DOT,MEAN_MOTION_DDOT,TLE_LINE0,TLE_LINE1,TLE_LINE2,SEMIMAJOR_AXIS,PERIOD,APOGEE,PERIGEE,DECAYED
53261.0,STARLINK-4062,PAYLOAD,2024-03-11 19:45:27,15.08840035,0.0001444,53.215,221.6384,89.8398,270.276,0.00010083,1.317e-05,0.0,0 STARLINK-4062,1 53261U 22086V   24071.82323949  .00001317  00000-0  10083-3 0  9996,2 53261  53.2150 221.6384 0001444  89.8398 270.2760 15.08840035 91007,6917.88,95.438,540.744,538.746,0.0
53261.0,STARLINK-4062,PAYLOAD,2024-03-12 10:03:56,15.08836536,0.0001125,53.212,218.962,88.9552,271.1569,0.00012635,1.723e-05,0.0,0 STARLINK-4062,1 53261U 22086V   24072.41940119  .00001723  00000-0  12635-3 0  9992,2 53261  53.2120 218.9620 0001125  88.9552 271.1569 15.08836536 91271,6917.891,95.438,540.534,538.978,0.0
53261.0,STARLINK-4062,PAYLOAD,2024-03-13 09:54:43,15.08837024,0.0001442,53.2122,214.5019,89.049,271.0667,8.8877e-05,1.127e-05,0.0,0 STARLINK-4062,1 53261U 22086V   24073.41300320  .00001127  00000-0  88877-4 0  9997,2 53261  53.2122 214.5019 0001442  89.0490 271.0667 15.08837024 91240,6917.889,95.438,540.752,538.757,0.0
53261.0,STARLINK-4062,PAYLOAD,2024-03-13 16:16:15,15.08840502,0.0001427,53.2117,213.3127,87.0208,273.0948,0.00011369,1.522e-05,0.0,0 STARLINK-4062,1 53261U 22086V   24073.67796126  .00001522  00000-0  11369-3 0  9998,2 53261  53.2117 213.3127 0001427  87.0208 273.0948 15.08840502 91462,6917.879,95.438,540.731,538.757,0.0
53261.0,STARLINK-4062,PAYLOAD,2024-03-14 08:10:07,15.08839221,0.0001181,53.2153,210.3411,87.7933,272.3194,0.00012882,1.763e-05,0.0,0 STARLINK-4062,1 53261U 22086V   24074.34036287  .00001763  00000-0  12882-3 0  9996,2 53261  53.2153 210.3411 0001181  87.7933 272.3194 15.08839221 91566,6917.883,95.438,540.565,538.931,0.0
53261.0,STARLINK-4062,PAYLOAD,2024-03-15 08:00:54,15.08841263,0.000154,53.2127,205.8781,85.7277,274.3891,6.1876e-05,6.97e-06,0.0,0 STARLINK-4062,1 53261U 22086V   24075.33396302  .00000697  00000-0  61876-4 0  9996,2 53261  53.2127 205.8781 0001540  85.7277 274.3891 15.08841263 91536,6917.877,95.437,540.807,538.676,0.0
53261.0,STARLINK-4062,PAYLOAD,2024-03-15 19:08:36,15.08841389,6.16e-05,53.2214,203.8008,20.8074,339.2943,8.1447e-05,1.009e-05,0.0,0 STARLINK-4062,1 53261U 22086V   24075.79764464  .00001009  00000-0  81447-4 0  9998,2 53261  53.2214 203.8008 0000616  20.8074 339.2943 15.08841389 91786,6917.876,95.437,540.167,539.315,0.0
53261.0,STARLINK-4062,PAYLOAD,2024-03-16 12:37:50,15.08861023,0.0001253,53.2207,200.5346,60.2486,299.863,-0.00029783,-5.027e-05,0.0,0 STARLINK-4062,1 53261U 22086V   24076.52628316 -.00005027  00000-0 -29783-3 0  9995,2 53261  53.2207 200.5346 0001253  60.2486 299.8630 15.08861023 91714,6917.816,95.436,540.548,538.814,0.0
53261.0,STARLINK-4062,PAYLOAD,2024-03-16 14:13:13,15.0884966,0.0001222,53.218,200.2284,124.3813,235.7295,0.00016864,2.398e-05,0.0,0 STARLINK-4062,1 53261U 22086V   24076.59251797  .00002398  00000-0  16864-3 0  9999,2 53261  53.2180 200.2284 0001222 124.3813 235.7295 15.08849660 91904,6917.851,95.437,540.561,538.871,0.0
53261.0,STARLINK-4062,PAYLOAD,2024-03-16 15:48:36,15.08851275,5.09e-05,53.2171,199.931,92.5074,267.5976,0.00017833,2.553e-05,0.0,0 STARLINK-4062,1 53261U 22086V   24076.65875711  .00002553  00000-0  17833-3 0  9994,2 53261  53.2171 199.9310 0000509  92.5074 267.5976 15.08851275 91915,6917.846,95.437,540.063,539.359,0.0
53261.0,STARLINK-4062,PAYLOAD,2024-03-17 12:28:38,15.08836872,0.0001364,53.2183,196.0706,73.272,286.8422,0.00012392,1.685e-05,0.0,0 STARLINK-4062,1 53261U 22086V   24077.51988888  .00001685  00000-0  12392-3 0  9990,2 53261  53.2183 196.0706 0001364  73.2720 286.8422 15.08836872 91869,6917.89,95.438,540.699,538.811,0.0
53261.0,STARLINK-4062,PAYLOAD,2024-03-17 14:04:01,15.08839953,0.0001186,53.2176,195.7706,81.1095,279.0032,0.00013463,1.855e-05,0.0,0 STARLINK-4062,1 53261U 22086V   24077.58612626  .00001855  00000-0  13463-3 0  9990,2 53261  53.2176 195.7706 0001186  81.1095 279.0032 15.08839953 92058,6917.881,95.438,540.566,538.925,0.0
53261.0,STARLINK-4062,PAYLOAD,2024-03-18 12:19:25,15.08845717,0.0001319,53.2177,191.6081,80.9919,279.1222,2.5976e-05,1.26e-06,0.0,0 STARLINK-4062,1 53261U 22086V   24078.51348624  .00000126  00000-0  25976-4 0  9991,2 53261  53.2177 191.6081 0001319  80.9919 279.1222 15.08845717 92192,6917.863,95.437,540.64,538.815,0.0
53261.0,STARLINK-4062,PAYLOAD,2024-03-18 17:05:33,15.08853852,0.0001523,53.2167,190.7126,112.2338,247.8815,4.1792e-05,3.77e-06,0.0,0 STARLINK-4062,1 53261U 22086V   24078.71219774  .00000377  00000-0  41792-4 0  9998,2 53261  53.2167 190.7126 0001523 112.2338 247.8815 15.08853852 92045,6917.838,95.437,540.757,538.649,0.0
53261.0,STARLINK-4062,PAYLOAD,2024-03-19 12:10:11,15.08835396,0.0001279,53.2171,187.1381,109.0605,251.0526,0.00034138,5.149e-05,0.0,0 STARLINK-4062,1 53261U 22086V   24079.50708274  .00005149  00000-0  34138-3 0  9991,2 53261  53.2171 187.1381 0001279 109.0605 251.0526 15.08835396 92344,6917.894,95.438,540.644,538.875,0.0
53261.0,STARLINK-4062,PAYLOAD,2024-03-20 10:25:36,15.08832692,0.0001573,53.217,182.9794,90.3869,269.7303,-8.3219e-05,-1.612e-05,0.0,0 STARLINK-4062,1 53261U 22086V   24080.43444983 -.00001612  00000-0 -83219-4 0  9997,2 53261  53.2170 182.9794 0001573  90.3869 269.7303 15.08832692 92306,6917.903,95.438,540.856,538.68,0.0
53261.0,STARLINK-4062,PAYLOAD,2024-03-20 12:00:59,15.08832868,0.0001646,53.2159,182.6841,91.7415,268.3766,-7.856e-05,-1.538e-05,0.0,0 STARLINK-4062,1 53261U 22086V   24080.50069019 -.00001538  00000-0 -78560-4 0  9998,2 53261  53.2159 182.6841 0001646  91.7415 268.3766 15.08832868 92499,6917.902,95.438,540.906,538.629,0.0
53261.0,STARLINK-4062,PAYLOAD,2024-03-21 11:51:46,15.08848885,0.0001541,53.2167,178.2249,70.7187,289.3971,0.00010521,1.387e-05,0.0,0 STARLINK-4062,1 53261U 22086V   24081.49428531  .00001387  00000-0  10521-3 0  9997,2 53261  53.2167 178.2249 0001541  70.7187 289.3971 15.08848885 92462,6917.853,95.437,540.784,538.652,0.0
53261.0,STARLINK-4062,PAYLOAD,2024-03-21 16:37:54,15.08863264,0.0001429,53.216,177.3316,96.5644,263.5511,0.00026155,3.88e-05,0.0,0 STARLINK-4062,1 53261U 22086V   24081.69299281  .00003880  00000-0  26155-3 0  9997,2 53261  53.2160 177.3316 0001429  96.5644 263.5511 15.08863264 92494,6917.809,95.436,540.663,538.686,0.0
53261.0,STARLINK-4062,PAYLOAD,2024-03-22 11:42:32,15.08854773,0.0001739,53.2171,173.7631,97.0689,263.0501,0.00030375,4.551e-05,0.0,0 STARLINK-4062,1 53261U 22086V   24082.48787939  .00004551  00000-0  30375-3 0  9992,2 53261  53.2171 173.7631 0001739  97.0689 263.0501 15.08854773 92618,6917.835,95.437,540.903,538.497,0.0
53261.0,STARLINK-4062,PAYLOAD,2024-03-22 13:17:55,15.0885972,0.0001585,53.2171,173.4632,100.8873,259.2297,0.00040705,6.2e-05,0.0,0 STARLINK-4062,1 53261U 22086V   24082.55411693  .00006200  00000-0  40705-3 0  9992,2 53261  53.2171 173.4632 0001585 100.8873 259.2297 15.08859720 92800,6917.82,95.436,540.782,538.589,0.0
53261.0,STARLINK-4062,PAYLOAD,2024-03-23 13:08:44,15.08824193,0.0001581,53.2166,169.004,95.0468,265.0705,2.7113e-05,1.43e-06,0.0,0 STARLINK-4062,1 53261U 22086V   24083.54773359  .00000143  00000-0  27113-4 0  9991,2 53261  53.2166 169.0040 0001581  95.0468 265.0705 15.08824193 92770,6917.929,95.439,540.887,538.7,0.0
53261.0,STARLINK-4062,PAYLOAD,2024-03-23 14:44:07,15.08828215,0.0001602,53.2167,168.7062,107.8969,252.2198,0.00018702,2.689e-05,0.0,0 STARLINK-4062,1 53261U 22086V   24083.61397279  .00002689  00000-0  18702-3 0  9992,2 53261  53.2167 168.7062 0001602 107.8969 252.2198 15.08828215 92967,6917.916,95.438,540.89,538.673,0.0
53261.0,STARLINK-4062,PAYLOAD,2024-03-24 05:02:35,15.08843027,0.0001524,53.2165,166.0289,110.0262,250.0895,0.00070419,0.00010938,0.0,0 STARLINK-4062,1 53261U 22086V   24084.21013480  .00010938  00000-0  70419-3 0  9997,2 53261  53.2165 166.0289 0001524 110.0262 250.0895 15.08843027 92870,6917.871,95.437,540.79,538.682,0.0
53261.0,STARLINK-4062,PAYLOAD,2024-03-24 12:59:30,15.08890858,0.0001594,53.216,164.5494,94.8551,265.2623,0.0024447,0.00038889,0.0,0 STARLINK-4062,1 53261U 22086V   24084.54132547  .00038889  00000-0  24447-2 0  9993,2 53261  53.2160 164.5494 0001594  94.8551 265.2623 15.08890858 92920,6917.725,95.434,540.693,538.487,0.0
53261.0,STARLINK-4062,PAYLOAD,2024-03-24 22:31:49,15.08881845,0.0002096,53.2163,162.7602,78.6442,281.4786,0.003201,0.00051085,0.0,0 STARLINK-4062,1 53261U 22086V   24084.93876897  .00051085  00000-0  32010-2 0  9997,2 53261  53.2163 162.7602 0002096  78.6442 281.4786 15.08881845 93164,6917.752,95.435,541.067,538.168,0.0
53261.0,STARLINK-4062,PAYLOAD,2024-03-25 11:14:55,15.08834841,0.0001458,53.216,160.385,64.4818,295.6325,0.001941,0.00030734,0.0,0 STARLINK-4062,1 53261U 22086V   24085.46869326  .00030734  00000-0  19410-2 0  9992,2 53261  53.2160 160.3850 0001458  64.4818 295.6325 15.08834841 93060,6917.896,95.438,540.77,538.753,0.0
53261.0,STARLINK-4062,PAYLOAD,2024-03-26 04:44:11,15.08824702,0.0001983,53.2154,157.1127,73.6888,286.4322,0.0017321,0.00027375,0.0,0 STARLINK-4062,1 53261U 22086V   24086.19735304  .00027375  00000-0  17321-2 0  9997,2 53261  53.2154 157.1127 0001983  73.6888 286.4322 15.08824702 93178,6917.927,95.439,541.164,538.42,0.0
53261.0,STARLINK-4062,PAYLOAD,2024-03-26 11:05:44,15.0881723,0.0001785,53.2157,155.923,56.6603,303.456,0.00054494,8.39e-05,0.0,0 STARLINK-4062,1 53261U 22086V   24086.46231874  .00008390  00000-0  54494-3 0  9999,2 53261  53.2157 155.9230 0001785  56.6603 303.4560 15.08817230 93215,6917.95,95.439,541.05,538.58,0.0
53261.0,STARLINK-4062,PAYLOAD,2024-03-27 10:56:30,15.08861056,0.0001922,53.2141,151.4616,53.0109,307.1059,0.001252,0.00019705,0.0,0 STARLINK-4062,1 53261U 22086V   24087.45591205  .00019705  00000-0  12520-2 0  9991,2 53261  53.2141 151.4616 0001922  53.0109 307.1059 15.08861056 93367,6917.816,95.436,541.011,538.351,0.0
